#aV2010  2  3  0  0   .00000000      96 DD+AD WGS84 FIT  NGA
## 1569 259200.00000000   900.00000000 55230  .0000000000000
+   32     1  2  3  4  5  6  7  8  9 10 11 12 13 14 15 16 17
+         18 19 20 21 22 23 24 25 26 27 28 29 30 31 32  0  0
+          0  0  0  0  0  0  0  0  0  0  0  0  0  0  0  0  0
+          0  0  0  0  0  0  0  0  0  0  0  0  0  0  0  0  0
+          0  0  0  0  0  0  0  0  0  0  0  0  0  0  0  0  0
++         0  0  0  0  0  0  0  0  0  0  0  0  0  0  0  0  0
++         0  0  0  0  0  0  0  0  0  0  0  0  0  0  0  0  0
++         0  0  0  0  0  0  0  0  0  0  0  0  0  0  0  0  0
++         0  0  0  0  0  0  0  0  0  0  0  0  0  0  0  0  0
++         0  0  0  0  0  0  0  0  0  0  0  0  0  0  0  0  0
%c cc cc ccc ccc cccc cccc cccc cccc ccccc ccccc ccccc ccccc
%c cc cc ccc ccc cccc cccc cccc cccc ccccc ccccc ccccc ccccc
%f  0.0000000  0.000000000  0.00000000000  0.000000000000000
%f  0.0000000  0.000000000  0.00000000000  0.000000000000000
%i    0    0    0    0      0      0      0      0         0
%i    0    0    0    0      0      0      0      0         0
/*      NGA, ST. LOUIS,MO.                                  
/*   EPHEMERIS COMPUTED FROM  3 DAYS OF DATA                
/* CCCCCCCCCCCCCCCCCCCCCCCCCCCCCCCCCCCCCCCCCCCCCCCCCCCCCCCCC
/* CCCCCCCCCCCCCCCCCCCCCCCCCCCCCCCCCCCCCCCCCCCCCCCCCCCCCCCCC
*  2010  2  3 20  0   .00000000                                                 
P  1  -9117.337979 -16156.970241 -19180.411372    -85.500318                    
V  1  23578.578777   4900.910369 -15295.651845      -.035808                    
P  2  21480.898780 -10746.587625 -10896.211286    222.781221                    
V  2  -7320.571749  12327.623943 -27168.351883       .041554                    
P  3 -14211.564678   6870.350363  20997.311888    510.930803                    
V  3 -10601.375865 -25525.205895   1501.799876       .052090                    
P  4  18360.121720   1746.936150 -19402.511397      6.320442                    
V  4 -16255.603183  18032.843963 -13513.891257       .092145                    
P  5  22541.224501  -3880.107659  13554.328094    -10.879577                    
V  5  16089.200467   6498.812651 -24773.505970       .029375                    
P  6 -15741.910586   2698.688626  21408.045186    254.054509                    
V  6  -8009.895493 -25638.960940  -2563.338925      -.044238                    
P  7    260.824815  18304.228512  19180.894881      3.363712                    
V  7 -18182.470869  16316.158316 -15468.827855      -.005446                    
P  8  11462.051439   9207.282192  22131.466661      2.882871                    
V  8 -21125.654822  18415.932744   2770.606800       .004483                    
P  9  15003.592700 -21349.763629  -5473.999560    103.913517                    
V  9   5724.442788  -2996.278099  31189.513744       .022449                    
P 10  25391.344527   1464.899554   8066.378332    -34.507826                    
V 10   9265.589380   5371.403119 -29140.897634      -.009835                    
P 11  -8966.920158  24062.527539  -6265.524486    -43.339924                    
V 11  -8455.410793   3965.834968  28856.000359      -.020997                    
P 12   7308.114386 -13400.488664 -21667.731288   -154.655716                    
V 12  26531.360741   7738.113751   4286.563003       .048304                    
P 13   5180.693978  26042.035890    -43.516011    306.597581                    
V 13  -1716.316282    448.835569 -32481.703014      -.000965                    
P 14 -13957.818900 -16719.245772 -15148.986825      7.677199                    
V 14  -2832.403934 -19224.304275  23496.030901       .043690                    
P 15   9732.905622 -15482.383472  19247.798726   -309.215562                    
V 15   8109.894586  23104.269201  14607.199397       .027133                    
P 16 -25416.913585  -1775.160744   8012.862752    -37.601566                    
V 16  -9020.686467  -4858.505905 -29617.250846      -.040515                    
P 17  15102.332616  15160.074806 -15777.666155    126.802889                    
V 17   3020.922916  19970.397642  21753.229743       .031581                    
P 18 -12763.286544 -16587.235200  16817.564831     46.462049                    
V 18  20492.383167   4030.334168  19458.285032       .026176                    
P 19 -10078.288873  16229.487536  18364.379931    -13.478767                    
V 19  -6001.854417 -22640.596699  17031.683973      -.022838                    
P 20  -2904.494809  15504.826649 -21505.087752     62.012502                    
V 20 -26365.299784  -6155.805041   -824.159488      -.007538                    
P 21  -5791.918268 -15810.199127  20722.280949    -38.260827                    
V 21  19395.739124 -17168.907095  -8422.673808      -.024641                    
P 22 -22417.481741 -12372.201438   7367.741850    179.955443                    
V 22   9716.492275   -515.085241  29256.121953      -.008116                    
P 23  -1229.981382  24164.100979 -10625.898114    380.808817                    
V 23  -5798.110271 -12483.496583 -28082.346292      -.009282                    
P 24   6093.940148 -20717.451103  15737.330864    259.375371                    
V 24  15970.073223 -11763.301981 -21541.041924       .031888                    
P 25  -4736.926555  21740.812128  14997.652735     92.363106                    
V 25 -12915.605106  13111.163400 -23436.634960       .071408                    
P 26 -10332.768563 -22851.231804  -8529.879538    -15.207601                    
V 26   -118.298488 -10357.955370  30247.048359      -.033894                    
P 27  17238.495219 -20072.219436   -778.064662    122.996553                    
V 27   3023.954857    248.173250  32169.017827       .033372                    
P 28  20840.328820  13607.362491  10158.892316    -22.679185                    
V 28 -12152.782586  -1670.382665  28186.663349       .005550                    
P 29  -3855.821849 -26084.952339  -3264.731012     95.201769                    
V 29   3679.013306   3496.502183 -31369.837654       .030542                    
P 30  -4538.836239 -16195.998687 -20957.329544    216.365857                    
V 30  25303.524235   4775.307325  -9289.589442       .033430                    
P 31 -18855.758047   1118.788436 -18521.565834    -52.871507                    
V 31  16015.002226 -17748.039904 -17015.531886       .014810                    
P 32 -13079.238258  10329.641785 -20245.990594    102.892081                    
V 32 -24619.272739 -10150.242918  10855.397785      -.082181                    
EOF
